STARLINK-6071           
1 56132C 23046AR  25196.11090278 -.00004834  00000+0 -35665-3 0  1960
2 56132  43.0039 357.0382 0001445 263.2004  55.5620 15.02541353    10
STARLINK-5566           
1 56133C 23046AS  25196.11368056 -.00003825  00000+0 -28221-3 0  1962
2 56133  43.0036 356.7431 0001470 266.0409 181.9635 15.02541213    12
STARLINK-5564           
1 56134C 23046AT  25196.11159722 -.00002999  00000+0 -22126-3 0  1960
2 56134  43.0039 356.9882 0001528 272.0792  68.4760 15.02539717    18
STARLINK-5489           
1 56136C 23046AV  25196.11437500 -.00006683  00000+0 -49308-3 0  1960
2 56136  43.0043 356.9119 0001380 267.4014 112.2421 15.02546107    12
STARLINK-5090           
1 56137C 23046AW  25196.10951389 -.00006303  00000+0 -46505-3 0  1961
2 56137  43.0040 356.6482 0001351 268.8275 204.7122 15.02544744    12
STARLINK-4774           
1 56138C 23046AX  25196.11298611 -.00001465  00000+0 -10806-3 0  1964
2 56138  43.0042 356.8372 0001482 264.4077 143.7641 15.02537853    13
STARLINK-5375           
1 56140C 23046AZ  25196.11298611 -.00004898  00000+0 -36136-3 0  1964
2 56140  43.0040 356.8087 0001428 263.7735 156.4380 15.02541150    16
STARLINK-5377           
1 56141C 23046BA  25196.11506944 -.00002962  00000+0 -21856-3 0  1969
2 56141  43.0039 356.6040 0001541 269.6694 239.9466 15.02542410    19
STARLINK-5376           
1 56142C 23046BB  25196.11159722 -.00006029  00000+0 -44482-3 0  1966
2 56142  43.0040 356.7655 0001485 260.2103 170.5052 15.02545883    12
STARLINK-5016           
1 56143C 23046BC  25196.11506944 -.00002694  00000+0 -19874-3 0  1960
2 56143  43.0041 356.5341 0001465 264.3052 275.3697 15.02540257    19
STARLINK-5374           
1 56144C 23046BD  25196.11159722 -.00002237  00000+0 -16506-3 0  1961
2 56144  43.0042 356.7268 0001434 263.4651 185.2751 15.02540789    12
STARLINK-5111           
1 56146C 23046BF  25196.11368056 -.00005286  00000+0 -39000-3 0  1966
2 56146  43.0036 356.5723 0001704 266.2292 253.9117 15.02542884    10
STARLINK-5140           
1 56147C 23046BG  25196.10951389 -.00002474  00000+0 -18252-3 0  1965
2 56147  43.0037 318.6796 0001445 268.7317  97.8662 15.02535934    16
STARLINK-5089           
1 56148C 23046BH  25196.11229167 -.00002694  00000+0 -19887-3 0  1968
2 56148  43.0036 318.7101 0001467 262.9581 100.7608 15.02518474    14
STARLINK-30107          
1 56287C 23056B   25196.08520833  .00006808  00000+0  50232-3 0  1961
2 56287  43.0031  61.5191 0001125 261.7751 327.2986 15.02530947    16
STARLINK-30106          
1 56288C 23056C   25196.08937500  .00002467  00000+0  18200-3 0  1961
2 56288  43.0028  61.0880 0001228 259.3833 172.5605 15.02534720    13
STARLINK-30095          
1 56289C 23056D   25196.08937500  .00003863  00000+0  28489-3 0  1963
2 56289  43.0031  35.3204 0001075 272.3981 354.5814 15.02550911    15
STARLINK-30103          
1 56290C 23056E   25196.08798611  .00003065  00000+0  22614-3 0  1961
2 56290  43.0026  61.0525 0001221 259.4856 182.9693 15.02533811    11
STARLINK-30113          
1 56291C 23056F   25196.09006944  .00008214  00000+0  60611-3 0  1964
2 56291  43.0025  61.1182 0001360 262.9480 154.7437 15.02526497    12
STARLINK-30098          
1 56292C 23056G   25196.08937500  .00006702  00000+0  49450-3 0  1963
2 56292  43.0026  60.9861 0001158 255.8557 212.1574 15.02531855    11
STARLINK-30090          
1 56293C 23056H   25196.08868056  .00006743  00000+0  49754-3 0  1965
2 56293  43.0023  61.7527 0001095 254.7786 244.9152 15.02530394    11
STARLINK-30049          
1 56294C 23056J   25196.08798611  .00006945  00000+0  51238-3 0  1969
2 56294  43.0029  61.6552 0001115 251.9474 262.0563 15.02532064    14
STARLINK-30083          
1 56295C 23056K   25196.08798611  .00003227  00000+0  23810-3 0  1965
2 56295  43.0033  35.4849 0001178 245.4410 301.8963 15.02536677    15
STARLINK-30089          
1 56296C 23056L   25196.08520833 -.00001093  00000+0 -80669-4 0  1962
2 56296  43.0035  22.4630 0001403 260.6782 270.2513 15.02538631    16
STARLINK-30086          
1 56297C 23056M   25196.08173611  .00007335  00000+0  54124-3 0  1960
2 56297  43.0031  61.4319 0001000 244.6069 343.7398 15.02529952    16
STARLINK-30109          
1 56298C 23056N   25196.08729167  .00006803  00000+0  50191-3 0  1963
2 56298  43.0026  61.4887 0001115 257.0033 325.3607 15.02530752    16
STARLINK-30108          
1 56299C 23056P   25196.08729167  .00004345  00000+0  32062-3 0  1960
2 56299  43.0028  48.9288 0001228 258.5069 142.1413 15.02532178    18
STARLINK-30104          
1 56300C 23056Q   25196.08590278  .00003657  00000+0  26989-3 0  1968
2 56300  43.0027  60.9769 0001301 265.4150 201.8641 15.02520221    10
STARLINK-30101          
1 56301C 23056R   25196.08868056  .00007151  00000+0  52760-3 0  1960
2 56301  43.0028  61.3290 0001397 265.3074  54.7087 15.02530668    10
STARLINK-30111          
1 56302C 23056S   25196.09006944  .00008189  00000+0  60416-3 0  1961
2 56302  43.0027  61.1725 0001207 265.3772  98.2609 15.02530350    17
STARLINK-30099          
1 56304C 23056U   25196.08937500  .00008217  00000+0  60625-3 0  1967
2 56304  43.0027  61.1221 0001195 255.5894 122.3229 15.02530962    18
STARLINK-30094          
1 56305C 23056V   25196.08798611  .00008223  00000+0  60666-3 0  1968
2 56305  43.0028  61.0741 0001297 246.2621 142.1806 15.02531847    18
STARLINK-30112          
1 56306C 23056W   25196.08520833  .00008455  00000+0  62408-3 0  1961
2 56306  43.0028  61.2402 0001085 255.5969  63.6030 15.02513408    17
STARLINK-6038           
1 56317C 23058A   25196.11090278  .00003307  00000+0  25796-3 0  1964
2 56317  97.6534 197.2584 0001623  51.6606 216.0261 15.01254080    15
STARLINK-5954           
1 56318C 23058B   25196.11020833  .00001190  00000+0  92802-4 0  1966
2 56318  97.6534 197.2603 0002380  87.8623 196.0866 15.01254150    15
STARLINK-6039           
1 56319C 23058C   25196.10951389  .00001918  00000+0  14963-3 0  1964
2 56319  97.6538 197.2628 0001537 102.9947 187.1618 15.01259990    11
STARLINK-5988           
1 56320C 23058D   25196.11229167  .00004130  00000+0  32213-3 0  1966
2 56320  97.6535 197.2601 0001445  42.1213 231.7277 15.01258778    10
STARLINK-5876           
1 56321C 23058E   25196.10812500  .00001457  00000+0  11364-3 0  1968
2 56321  97.6538 197.2724 0001634 113.1207 199.5544 15.01261217    12
STARLINK-6033           
1 56322C 23058F   25196.11298611  .00003268  00000+0  25490-3 0  1968
2 56322  97.6527 197.2614 0000687  52.5721 236.3468 15.01258004    18
STARLINK-6035           
1 56323C 23058G   25196.10812500  .00002161  00000+0  16857-3 0  1965
2 56323  97.6537 197.2689 0001130 104.7261 197.9663 15.01255257    11
STARLINK-6034           
1 56324C 23058H   25196.10812500  .00001921  00000+0  14988-3 0  1962
2 56324  97.6538 197.2648 0001557 106.1715 186.5072 15.01256498    17
STARLINK-5981           
1 56325C 23058J   25196.06506944  .00002237  00000+0  17446-3 0  1963
2 56325  97.6539 197.2416 0002713 154.8750 315.2564 15.01257796    15
STARLINK-5980           
1 56326C 23058K   25196.10951389  .00001572  00000+0  12262-3 0  1968
2 56326  97.6538 197.2658 0001016 124.3610 174.5105 15.01253828    14
STARLINK-5997           
1 56327C 23058L   25196.11159722  .00002605  00000+0  20316-3 0  1968
2 56327  97.6542 197.2992 0001752 137.9105 252.2146 15.01259873    12
STARLINK-5992           
1 56328C 23058M   25196.11298611  .00002054  00000+0  16019-3 0  1963
2 56328  97.6538 197.2848 0002281 151.2429 207.6902 15.01259461    11
STARLINK-5984           
1 56329C 23058N   25196.10881944  .00002676  00000+0  20872-3 0  1962
2 56329  97.6540 197.2887 0003064 159.2993 197.1379 15.01259867    13
STARLINK-5991           
1 56331C 23058Q   25196.11298611  .00003213  00000+0  25063-3 0  1964
2 56331  97.6544 197.3055 0003256 146.2146 262.7376 15.01259870    17
STARLINK-5093           
1 56332C 23058R   25196.09909722  .00001491  00000+0  11626-3 0  1960
2 56332  97.6538 197.2675 0001829 144.9986 128.9212 15.01260640    18
STARLINK-5553           
1 56333C 23058S   25196.10881944  .00003706  00000+0  28899-3 0  1969
2 56333  97.6547 197.3059 0003978 120.3025 276.1231 15.01265491    11
STARLINK-5548           
1 56334C 23058T   25196.10812500  .00002424  00000+0  18907-3 0  1967
2 56334  97.6542 197.2964 0002852 144.0730 228.6224 15.01258291    11
STARLINK-5559           
1 56335C 23058U   25196.10812500  .00003503  00000+0  27323-3 0  1969
2 56335  97.6570 197.3209 0002099  99.3013 322.0942 15.01256023    12
STARLINK-5562           
1 56336C 23058V   25196.11506944  .00001245  00000+0  97104-4 0  1969
2 56336  97.6541 197.2991 0002995 148.6490 251.5416 15.01259923    14
STARLINK-5561           
1 56337C 23058W   25196.10951389  .00003101  00000+0  24181-3 0  1963
2 56337  97.6555 197.3158 0001952 107.0715 311.7767 15.01268489    12
STARLINK-5554           
1 56338C 23058X   25196.10812500  .00002745  00000+0  21415-3 0  1965
2 56338  97.6551 197.3099 0003318 108.6861 294.0254 15.01255266    13
STARLINK-5552           
1 56339C 23058Y   25196.11090278  .00004557  00000+0  35549-3 0  1963
2 56339  97.6562 197.3386 0002469  78.0761  19.6483 15.01256038    13
STARLINK-5540           
1 56340C 23058Z   25196.10881944  .00004010  00000+0  31280-3 0  1964
2 56340  97.6555 197.3157 0002215 124.3599 292.1001 15.01257004    14
STARLINK-5543           
1 56341C 23058AA  25196.11159722  .00002929  00000+0  22844-3 0  1961
2 56341  97.6572 197.3257 0002230 102.1866 339.2793 15.01258628    17
STARLINK-5955           
1 56342C 23058AB  25196.11368056  .00003310  00000+0  25819-3 0  1964
2 56342  97.6569 197.3340 0002472  92.2144  10.5107 15.01257308    15
STARLINK-5976           
1 56343C 23058AC  25196.10951389  .00004924  00000+0  38411-3 0  1965
2 56343  97.6551 197.3554 0001869  92.9313  27.3143 15.01252127    18
